NORAD_CAT_ID,OBJECT_NAME,OBJECT_TYPE,EPOCH,MEAN_MOTION,ECCENTRICITY,INCLINATION,RA_OF_ASC_NODE,ARG_OF_PERICENTER,MEAN_ANOMALY,BSTAR,MEAN_MOTION_DOT,MEAN_MOTION_DDOT,TLE_LINE0,TLE_LINE1,TLE_LINE2,SEMIMAJOR_AXIS,PERIOD,APOGEE,PERIGEE,DECAYED
52493.0,STARLINK-3883,PAYLOAD,2024-05-31 22:20:37,15.08840522,0.0001683,53.2195,72.532,103.2836,256.8344,4.713e-05,4.62e-06,0.0,0 STARLINK-3883,1 52493U 22049AU  24152.93098461  .00000462  00000-0  47130-4 0  9995,2 52493  53.2195  72.5320 0001683 103.2836 256.8344 15.08840522114755,6917.879,95.438,540.908,538.58,0.0
52493.0,STARLINK-3883,PAYLOAD,2024-06-01 11:03:42,15.08841186,0.0001325,53.2175,70.1564,91.3164,268.798,3.8397e-05,3.23e-06,0.0,0 STARLINK-3883,1 52493U 22049AU  24153.46090403  .00000323  00000-0  38397-4 0  9993,2 52493  53.2175  70.1564 0001325  91.3164 268.7980 15.08841186114992,6917.877,95.437,540.658,538.825,0.0
52493.0,STARLINK-3883,PAYLOAD,2024-06-01 19:00:38,15.08836658,0.0001965,53.2191,68.666,77.6519,282.4693,-2.0756e-05,-6.18e-06,0.0,0 STARLINK-3883,1 52493U 22049AU  24153.79211176 -.00000618  00000-0 -20756-4 0  9990,2 52493  53.2191  68.6660 0001965  77.6519 282.4693 15.08836658115049,6917.891,95.438,541.115,538.396,0.0
52493.0,STARLINK-3883,PAYLOAD,2024-06-02 10:54:29,15.08837712,0.0001374,53.219,65.6985,83.0549,277.06,-8.378e-05,-1.621e-05,0.0,0 STARLINK-3883,1 52493U 22049AU  24154.45451383 -.00001621  00000-0 -83780-4 0  9991,2 52493  53.2190  65.6985 0001374  83.0549 277.0600 15.08837712114985,6917.887,95.438,540.703,538.802,0.0
52493.0,STARLINK-3883,PAYLOAD,2024-06-03 10:45:17,15.08831627,0.0001337,53.2185,61.238,89.6475,270.467,0.00024226,3.569e-05,0.0,0 STARLINK-3883,1 52493U 22049AU  24155.44811356  .00003569  00000-0  24226-3 0  9991,2 52493  53.2185  61.2380 0001337  89.6475 270.4670 15.08831627115297,6917.906,95.438,540.696,538.846,0.0
52493.0,STARLINK-3883,PAYLOAD,2024-06-04 02:39:07,15.08844905,0.000139,53.2179,58.262,81.9972,278.1178,0.00017304,2.467e-05,0.0,0 STARLINK-3883,1 52493U 22049AU  24156.11050777  .00002467  00000-0  17304-3 0  9993,2 52493  53.2179  58.2620 0001390  81.9972 278.1178 15.08844905115391,6917.865,95.437,540.692,538.769,0.0
52493.0,STARLINK-3883,PAYLOAD,2024-06-04 10:36:03,15.08837877,8.14e-05,53.2172,56.7754,79.0385,281.0699,9.8614e-05,1.282e-05,0.0,0 STARLINK-3883,1 52493U 22049AU  24156.44171269  .00001282  00000-0  98614-4 0  9997,2 52493  53.2172  56.7754 0000814  79.0385 281.0699 15.08837877115448,6917.887,95.438,540.315,539.189,0.0
52493.0,STARLINK-3883,PAYLOAD,2024-06-04 23:19:09,15.08840215,0.0001202,53.2186,54.3953,80.0646,280.0482,6.4721e-05,7.42e-06,0.0,0 STARLINK-3883,1 52493U 22049AU  24156.97163430  .00000742  00000-0  64721-4 0  9998,2 52493  53.2186  54.3953 0001202  80.0646 280.0482 15.08840215115362,6917.88,95.438,540.576,538.913,0.0
52493.0,STARLINK-3883,PAYLOAD,2024-06-05 02:29:54,15.08853728,0.0001439,53.2187,53.7998,84.8087,275.3069,0.00013341,1.837e-05,0.0,0 STARLINK-3883,1 52493U 22049AU  24157.10410482  .00001837  00000-0  13341-3 0  9993,2 52493  53.2187  53.7998 0001439  84.8087 275.3069 15.08853728115549,6917.838,95.437,540.699,538.708,0.0
52493.0,STARLINK-3883,PAYLOAD,2024-06-05 10:26:51,15.08838939,0.0001181,53.2195,52.3126,93.6012,266.5115,7.8421e-07,-2.75e-06,0.0,0 STARLINK-3883,1 52493U 22049AU  24157.43531549 -.00000275  00000-0  78421-6 0  9996,2 52493  53.2195  52.3126 0001181  93.6012 266.5115 15.08838939115592,6917.884,95.438,540.566,538.932,0.0
52493.0,STARLINK-3883,PAYLOAD,2024-06-05 23:09:56,15.08838453,0.0001436,53.2187,49.9346,91.6448,268.4708,4.4296e-06,-2.17e-06,0.0,0 STARLINK-3883,1 52493U 22049AU  24157.96523801 -.00000217  00000-0  44296-5 0  9994,2 52493  53.2187  49.9346 0001436  91.6448 268.4708 15.08838453115515,6917.885,95.438,540.744,538.757,0.0
52493.0,STARLINK-3883,PAYLOAD,2024-06-06 10:17:37,15.08847857,0.000141,53.2173,47.8541,93.1731,266.9423,-3.7787e-05,-8.89e-06,0.0,0 STARLINK-3883,1 52493U 22049AU  24158.42891202 -.00000889  00000-0 -37787-4 0  9991,2 52493  53.2173  47.8541 0001410  93.1731 266.9423 15.08847857115580,6917.856,95.437,540.697,538.746,0.0
52493.0,STARLINK-3883,PAYLOAD,2024-06-07 16:29:57,15.08849928,0.0003755,53.2112,42.2013,93.7886,266.3536,0.00023406,3.439e-05,0.0,0 STARLINK-3883,1 52493U 22049AU  24159.68747667  .00003439  00000-0  23406-3 0  9999,2 52493  53.2112  42.2013 0003755  93.7886 266.3536 15.08849928115936,6917.85,95.437,542.313,537.117,0.0
52493.0,STARLINK-3883,PAYLOAD,2024-06-07 22:51:30,15.08847542,0.0003494,53.212,41.0124,92.9483,267.1909,0.00018192,2.608e-05,0.0,0 STARLINK-3883,1 52493U 22049AU  24159.95243626  .00002608  00000-0  18192-3 0  9998,2 52493  53.2120  41.0124 0003494  92.9483 267.1909 15.08847542115819,6917.857,95.437,542.139,537.305,0.0
52493.0,STARLINK-3883,PAYLOAD,2024-06-08 02:02:16,15.08843131,0.0001303,53.2155,40.4187,79.7568,280.3571,0.0001159,1.557e-05,0.0,0 STARLINK-3883,1 52493U 22049AU  24160.08491459  .00001557  00000-0  11590-3 0  9990,2 52493  53.2155  40.4187 0001303  79.7568 280.3571 15.08843131115994,6917.871,95.437,540.637,538.834,0.0
52493.0,STARLINK-3883,PAYLOAD,2024-06-08 22:42:15,15.08872458,0.0001544,53.2161,36.5525,69.2053,290.9104,-0.00078597,-0.00012786,0.0,0 STARLINK-3883,1 52493U 22049AU  24160.94601269 -.00012786  00000-0 -78597-3 0  9995,2 52493  53.2161  36.5525 0001544  69.2053 290.9104 15.08872458115963,6917.781,95.436,540.714,538.578,0.0
52493.0,STARLINK-3883,PAYLOAD,2024-06-09 00:17:40,15.08841243,0.0001448,53.2191,36.2587,81.4809,278.6347,0.00022874,3.354e-05,0.0,0 STARLINK-3883,1 52493U 22049AU  24161.01227449  .00003354  00000-0  22874-3 0  9994,2 52493  53.2191  36.2587 0001448  81.4809 278.6347 15.08841243115970,6917.877,95.437,540.743,538.74,0.0
52493.0,STARLINK-3883,PAYLOAD,2024-06-09 20:57:42,15.08831903,0.0001453,53.2178,32.3902,87.9939,272.122,-5.3725e-05,-1.143e-05,0.0,0 STARLINK-3883,1 52493U 22049AU  24161.87340372 -.00001143  00000-0 -53725-4 0  9995,2 52493  53.2178  32.3902 0001453  87.9939 272.1220 15.08831903116268,6917.905,95.438,540.775,538.765,0.0
52493.0,STARLINK-3883,PAYLOAD,2024-06-09 22:33:05,15.08834959,0.0001347,53.2176,32.0942,84.3351,275.7795,4.7151e-06,-2.13e-06,0.0,0 STARLINK-3883,1 52493U 22049AU  24161.93964230 -.00000213  00000-0  47151-5 0  9990,2 52493  53.2176  32.0942 0001347  84.3351 275.7795 15.08834959116112,6917.896,95.438,540.693,538.829,0.0
52493.0,STARLINK-3883,PAYLOAD,2024-06-10 08:05:23,15.08837387,0.0001422,53.2181,30.3109,90.045,270.0705,7.1837e-05,8.55e-06,0.0,0 STARLINK-3883,1 52493U 22049AU  24162.33708140  .00000855  00000-0  71837-4 0  9999,2 52493  53.2181  30.3109 0001422  90.0450 270.0705 15.08837387116175,6917.888,95.438,540.737,538.77,0.0
52493.0,STARLINK-3883,PAYLOAD,2024-06-10 20:48:29,15.08841307,0.000146,53.2179,27.9322,94.1213,265.9946,0.00017121,2.438e-05,0.0,0 STARLINK-3883,1 52493U 22049AU  24162.86700336  .00002438  00000-0  17121-3 0  9990,2 52493  53.2179  27.9322 0001460  94.1213 265.9946 15.08841307116419,6917.876,95.437,540.751,538.731,0.0
52493.0,STARLINK-3883,PAYLOAD,2024-06-10 22:23:51,15.0884514,0.0001439,53.2182,27.6348,91.4374,268.6783,0.00022221,3.251e-05,0.0,0 STARLINK-3883,1 52493U 22049AU  24162.93324074  .00003251  00000-0  22221-3 0  9990,2 52493  53.2182  27.6348 0001439  91.4374 268.6783 15.08845140116263,6917.865,95.437,540.725,538.734,0.0
52493.0,STARLINK-3883,PAYLOAD,2024-06-10 23:59:15,15.08846442,0.000145,53.2181,27.3374,89.9085,270.2073,0.00027084,4.026e-05,0.0,0 STARLINK-3883,1 52493U 22049AU  24162.99948049  .00004026  00000-0  27084-3 0  9993,2 52493  53.2181  27.3374 0001450  89.9085 270.2073 15.08846442116270,6917.861,95.437,540.729,538.723,0.0
52493.0,STARLINK-3883,PAYLOAD,2024-06-11 22:14:39,15.088452,0.000148,53.218,23.1741,84.1863,275.9298,0.00023131,3.396e-05,0.0,0 STARLINK-3883,1 52493U 22049AU  24163.92684347  .00003396  00000-0  23131-3 0  9993,2 52493  53.2180  23.1741 0001480  84.1863 275.9298 15.08845200116570,6917.864,95.437,540.753,538.706,0.0
52493.0,STARLINK-3883,PAYLOAD,2024-06-12 20:30:03,15.08835215,0.0001617,53.2186,19.0089,89.1595,270.9582,-4.9813e-05,-1.081e-05,0.0,0 STARLINK-3883,1 52493U 22049AU  24164.85421003 -.00001081  00000-0 -49813-4 0  9991,2 52493  53.2186  19.0089 0001617  89.1595 270.9582 15.08835215116716,6917.895,95.438,540.879,538.641,0.0
52493.0,STARLINK-3883,PAYLOAD,2024-06-12 22:05:26,15.08837548,0.0001531,53.2183,18.7098,94.8669,265.2498,-4.7492e-05,-1.044e-05,0.0,0 STARLINK-3883,1 52493U 22049AU  24164.92044764 -.00001044  00000-0 -47492-4 0  9994,2 52493  53.2183  18.7098 0001531  94.8669 265.2498 15.08837548116566,6917.888,95.438,540.812,538.694,0.0
52493.0,STARLINK-3883,PAYLOAD,2024-06-13 13:59:18,15.08836294,0.0001273,53.2175,15.7394,97.3821,262.7316,-4.4791e-05,-1.001e-05,0.0,0 STARLINK-3883,1 52493U 22049AU  24165.58285636 -.00001001  00000-0 -44791-4 0  9994,2 52493  53.2175  15.7394 0001273  97.3821 262.7316 15.08836294116663,6917.892,95.438,540.637,538.876,0.0
52493.0,STARLINK-3883,PAYLOAD,2024-06-13 20:20:51,15.08840156,0.0001274,53.2178,14.5496,96.5448,263.569,-6.319e-06,-3.88e-06,0.0,0 STARLINK-3883,1 52493U 22049AU  24165.84781305 -.00000388  00000-0 -63190-5 0  9999,2 52493  53.2178  14.5496 0001274  96.5448 263.5690 15.08840156116704,6917.88,95.438,540.626,538.864,0.0
52493.0,STARLINK-3883,PAYLOAD,2024-06-14 13:50:05,15.08835501,0.0001408,53.2178,11.2789,94.3833,265.732,0.00030687,4.599e-05,0.0,0 STARLINK-3883,1 52493U 22049AU  24166.57644976  .00004599  00000-0  30687-3 0  9991,2 52493  53.2178  11.2789 0001408  94.3833 265.7320 15.08835501116977,6917.894,95.438,540.733,538.785,0.0
52493.0,STARLINK-3883,PAYLOAD,2024-06-14 20:11:37,15.08852124,0.0001348,53.2179,10.0892,95.7105,264.4041,0.0002595,3.846e-05,0.0,0 STARLINK-3883,1 52493U 22049AU  24166.84140098  .00003846  00000-0  25950-3 0  9998,2 52493  53.2179  10.0892 0001348  95.7105 264.4041 15.08852124116853,6917.843,95.437,540.641,538.776,0.0
